[{"OBJECT_NAME":"STARLINK-30309","OBJECT_ID":"2023-122A","EPOCH":"2026-03-09T09:53:54.246624","MEAN_MOTION":15.26712855,"ECCENTRICITY":0.00010941,"INCLINATION":42.9987,"RA_OF_ASC_NODE":94.1486,"ARG_OF_PERICENTER":299.3962,"MEAN_ANOMALY":60.678,"EPHEMERIS_TYPE":0,"CLASSIFICATION_TYPE":"U","NORAD_CAT_ID":57632,"ELEMENT_SET_NO":999,"REV_AT_EPOCH":14216,"BSTAR":-0.00015787097,"MEAN_MOTION_DOT":-4.488e-5,"MEAN_MOTION_DDOT":0},{"OBJECT_NAME":"OBJECT N","OBJECT_ID":"2019-093N","EPOCH":"2026-03-09T21:41:56.087232","MEAN_MOTION":15.29897693,"ECCENTRICITY":0.0006278,"INCLINATION":98.0505,"RA_OF_ASC_NODE":226.9456,"ARG_OF_PERICENTER":33.3806,"MEAN_ANOMALY":326.7828,"EPHEMERIS_TYPE":0,"CLASSIFICATION_TYPE":"U","NORAD_CAT_ID":44891,"ELEMENT_SET_NO":999,"REV_AT_EPOCH":33957,"BSTAR":0.0010567776,"MEAN_MOTION_DOT":0.00030617,"MEAN_MOTION_DDOT":0}]
